     2.11           N: GPS NAV DATA                         RINEX VERSION / TYPE
teqc  2018Dec12     gpsops              20220312 01:04:05UTCPGM / RUN BY / DATE
Linux 2.6.32-573.12.1.x86_64|x86_64|gcc -static|Linux 64|=+ COMMENT
CHPI                                    MARKER NAME         COMMENT
41609M003                               MARKER NUMBER       COMMENT
4164613.9484 -4162456.9866 -2445028.7316                    COMMENT
                                                            COMMENT
This data is provided as a public service by NASA/JPL.      COMMENT
No warranty is expressed or implied regarding suitability   COMMENT
for use.  For further information, contact:                 COMMENT
Dave Stowers, NASA/JPL m/s 238-600                          COMMENT
4800 Oak Grove Drive, Pasadena CA 91109 USA                 COMMENT
                                                            END OF HEADER
 2 22  3 11  0  0  0.0-6.520892493427D-04-4.547473508865D-13 0.000000000000D+00
    8.500000000000D+01-4.437500000000D+01 4.384111187257D-09 1.978320874857D+00
   -2.562999725342D-06 2.060480916407D-02 3.494322299957D-06 5.153709363937D+03
    4.320000000000D+05 3.222376108170D-07-2.378116199114D+00-1.620501279831D-07
    9.654404042737D-01 3.079062500000D+02-1.433452316860D+00-7.908186550570D-09
   -1.500062483624D-10 1.000000000000D+00 2.200000000000D+03 0.000000000000D+00
    2.000000000000D+00 0.000000000000D+00-1.769512891769D-08 8.500000000000D+01
    4.248180000000D+05 4.000000000000D+00
 3 22  3 11  0  0  0.0-1.576971262693D-04-1.693933882052D-11 0.000000000000D+00
    5.300000000000D+01-5.859375000000D+01 4.186245802512D-09 7.036203946937D-01
   -3.041699528694D-06 3.940132330172D-03 7.979571819305D-06 5.153668899536D+03
    4.320000000000D+05-8.568167686462D-08-1.253290944713D+00 2.980232238770D-08
    9.725979972276D-01 2.308437500000D+02 9.477071907342D-01-7.899257607215D-09
    4.000166622996D-11 1.000000000000D+00 2.200000000000D+03 0.000000000000D+00
    2.000000000000D+00 0.000000000000D+00 1.862645149231D-09 5.300000000000D+01
    4.248180000000D+05 4.000000000000D+00
 4 22  3 11  0  0  0.0-1.844954676926D-04 2.614797267597D-12 0.000000000000D+00
    1.600000000000D+02-1.409375000000D+01 4.521616914922D-09-2.689029947359D+00
   -7.469207048416D-07 1.732978154905D-03 8.022412657738D-06 5.153640981674D+03
    4.320000000000D+05-5.587935447693D-09-1.718925407686D-01 2.235174179077D-08
    9.615246129139D-01 2.262187500000D+02-3.022600120022D+00-7.894971714404D-09
    1.407201472733D-10 1.000000000000D+00 2.200000000000D+03 0.000000000000D+00
    2.000000000000D+00 0.000000000000D+00-4.190951585770D-09 9.280000000000D+02
    4.248180000000D+05 4.000000000000D+00
 5 22  3 11  0  0  0.0-7.423106580973D-05-1.364242052659D-12 0.000000000000D+00
    8.500000000000D+01-7.265625000000D+01 4.379468136712D-09-1.779816438122D+00
   -3.717839717865D-06 5.880687036552D-03 7.620081305504D-06 5.153683149338D+03
    4.320000000000D+05 1.154839992523D-07-1.294018992194D+00-5.587935447693D-09
    9.595913973934D-01 2.319062500000D+02 1.006901600465D+00-7.882114035973D-09
    7.071723137082D-11 1.000000000000D+00 2.200000000000D+03 0.000000000000D+00
    2.000000000000D+00 0.000000000000D+00-1.117587089539D-08 8.500000000000D+01
    4.273620000000D+05 4.000000000000D+00
 6 22  3 10 23 59 44.0 2.271933481097D-04 1.261923898710D-11 0.000000000000D+00
    3.000000000000D+00-4.956250000000D+01 4.061954911012D-09 2.137467924724D+00
   -2.324581146240D-06 2.701541176066D-03 4.589557647705D-06 5.153685123444D+03
    4.319840000000D+05 7.264316082001D-08-2.296644055941D+00-1.862645149231D-08
    9.864967561896D-01 3.010000000000D+02-9.245715202064D-01-7.945330954926D-09
   -1.160762636137D-10 1.000000000000D+00 2.200000000000D+03 0.000000000000D+00
    2.000000000000D+00 0.000000000000D+00 3.725290298462D-09 3.000000000000D+00
    4.267380000000D+05 4.000000000000D+00
 7 22  3 11  0  0  0.0 3.153225407004D-04 2.046363078989D-12 0.000000000000D+00
    3.900000000000D+01 2.300000000000D+01 4.824486673521D-09 1.171348842032D+00
    1.281499862671D-06 1.566884643398D-02 8.150935173035D-06 5.153682748795D+03
    4.320000000000D+05-2.086162567139D-07 8.464897555132D-01 1.098960638046D-07
    9.510116666646D-01 2.205000000000D+02-2.286776277045D+00-8.252843764069D-09
   -2.528676758108D-10 1.000000000000D+00 2.200000000000D+03 0.000000000000D+00
    2.000000000000D+00 0.000000000000D+00-1.117587089539D-08 3.900000000000D+01
    4.248180000000D+05 4.000000000000D+00
 8 22  3 10 23 59 44.0-5.934340879321D-05-1.477928890381D-12 0.000000000000D+00
    8.000000000000D+00 3.521875000000D+01 4.530545858277D-09-2.204317423423D+00
    1.674517989159D-06 7.371561601758D-03 5.185604095459D-06 5.153732297897D+03
    4.319840000000D+05-3.166496753693D-08 2.914959394799D+00-1.695007085800D-07
    9.646549606311D-01 2.845625000000D+02 1.245324960783D-01-8.103194673441D-09
    6.000249934494D-11 1.000000000000D+00 2.200000000000D+03 0.000000000000D+00
    2.000000000000D+00 0.000000000000D+00 5.122274160385D-09 8.000000000000D+00
    4.248180000000D+05 4.000000000000D+00
 9 22  3 11  0  0  0.0-3.504171036184D-04 1.932676241267D-12 0.000000000000D+00
    4.000000000000D+01-1.721875000000D+01 4.701981570691D-09-1.803848725288D+00
   -9.313225746155D-07 2.181409625337D-03 8.018687367439D-06 5.153604314804D+03
    4.320000000000D+05 2.980232238770D-08-2.250213937071D-01 7.450580596924D-08
    9.545107779938D-01 2.218125000000D+02 1.876675904753D+00-8.001047561461D-09
    1.032185851827D-10 1.000000000000D+00 2.200000000000D+03 0.000000000000D+00
    2.000000000000D+00 0.000000000000D+00 1.396983861923D-09 4.000000000000D+01
    4.248180000000D+05 4.000000000000D+00
11 22  3 11  0  0  0.0-6.637163460255D-05 9.322320693173D-12 0.000000000000D+00
    9.100000000000D+01-5.321875000000D+01 4.552332480063D-09-2.265137023958D+00
   -2.745538949966D-06 2.673465060070D-04 4.490837454796D-06 5.153782686234D+03
    4.320000000000D+05-2.793967723846D-08-2.245162406335D+00 0.000000000000D+00
    9.622251195328D-01 2.915000000000D+02 2.800115521354D+00-8.204270312218D-09
   -8.964659128322D-11 1.000000000000D+00 2.200000000000D+03 0.000000000000D+00
    5.120000000000D+02 6.300000000000D+01-8.847564458847D-09 3.470000000000D+02
    4.248180000000D+05 4.000000000000D+00
13 22  3 11  0  0  0.0 2.747797407210D-04 6.366462912410D-12 0.000000000000D+00
    6.000000000000D+00-1.109375000000D+01 4.253391456541D-09-2.730313002553D+00
   -5.178153514862D-07 5.812307819724D-03 8.067116141319D-06 5.153669549942D+03
    4.320000000000D+05-3.725290298462D-09-7.185292429985D-02-9.313225746155D-09
    9.689877129020D-01 2.285312500000D+02 9.463953994071D-01-7.651747297417D-09
    1.646497154644D-10 1.000000000000D+00 2.200000000000D+03 0.000000000000D+00
    2.000000000000D+00 0.000000000000D+00-1.117587089539D-08 6.000000000000D+00
    4.300080000000D+05 4.000000000000D+00
14 22  3 11  0  0  0.0-9.258603677154D-05-3.865352482535D-12 0.000000000000D+00
    1.980000000000D+02 6.750000000000D+01 4.619478134092D-09 5.946863869836D-01
    3.477558493614D-06 1.545742154121D-03 7.376074790955D-06 5.153656154633D+03
    4.320000000000D+05 9.313225746155D-09 1.927956647430D+00 5.587935447693D-09
    9.531963987646D-01 2.341562500000D+02 3.018996973273D+00-8.076050685642D-09
   -1.085759511956D-10 1.000000000000D+00 2.200000000000D+03 0.000000000000D+00
    2.000000000000D+00 0.000000000000D+00-7.450580596924D-09 4.540000000000D+02
    4.248180000000D+05 4.000000000000D+00
16 22  3 11  0  0  0.0-4.791817627847D-04-4.433786671143D-12 0.000000000000D+00
    6.400000000000D+01 5.259375000000D+01 4.234104938895D-09-1.326317451154D+00
    2.846121788025D-06 1.279258285649D-02 6.709247827530D-06 5.153618892670D+03
    4.320000000000D+05 2.700835466385D-07 1.978250180803D+00-3.539025783539D-08
    9.697332964156D-01 2.481562500000D+02 7.166246948207D-01-7.864613306998D-09
   -3.571577341961D-13 1.000000000000D+00 2.200000000000D+03 0.000000000000D+00
    2.000000000000D+00 0.000000000000D+00-1.024454832077D-08 6.400000000000D+01
    4.248180000000D+05 4.000000000000D+00
17 22  3 11  0  0  0.0 5.855914205313D-04 5.002220859751D-12 0.000000000000D+00
    6.500000000000D+01 4.162500000000D+01 4.140529612535D-09-2.284437584521D+00
    2.361834049225D-06 1.354014186654D-02 4.546716809273D-06 5.153775279999D+03
    4.320000000000D+05 1.322478055954D-07 2.997178085549D+00 1.266598701477D-07
    9.798327708136D-01 2.999687500000D+02-1.494482776555D+00-7.799967757108D-09
    9.464679956196D-11 1.000000000000D+00 2.200000000000D+03 0.000000000000D+00
    2.000000000000D+00 0.000000000000D+00-1.117587089539D-08 6.500000000000D+01
    4.281660000000D+05 4.000000000000D+00
19 22  3 11  0  0  0.0 1.293672248721D-04 5.002220859751D-12 0.000000000000D+00
    4.500000000000D+01 3.675000000000D+01 4.300536277455D-09 1.349786381735D-01
    1.953914761543D-06 9.024501661770D-03 4.997476935387D-06 5.153689491272D+03
    4.320000000000D+05-7.636845111847D-08 3.042016341814D+00-1.024454832077D-07
    9.786169995775D-01 2.956562500000D+02 2.017977996084D+00-8.209270520497D-09
    3.392998474863D-11 1.000000000000D+00 2.200000000000D+03 0.000000000000D+00
    2.000000000000D+00 0.000000000000D+00-1.583248376846D-08 4.500000000000D+01
    4.307880000000D+05 4.000000000000D+00
20 22  3 11  0  0  0.0 5.163550376892D-04-1.136868377216D-13 0.000000000000D+00
    3.800000000000D+01-7.965625000000D+01 4.758412492694D-09 2.834512113516D+00
   -4.181638360023D-06 5.063640186563D-03 7.372349500656D-06 5.153769876480D+03
    4.320000000000D+05-7.636845111847D-08-1.408521300600D+00 2.793967723846D-08
    9.418107560498D-01 2.290937500000D+02-3.134789462781D+00-8.104623304378D-09
    4.285892810353D-12 1.000000000000D+00 2.200000000000D+03 0.000000000000D+00
    2.000000000000D+00 0.000000000000D+00-8.381903171539D-09 3.800000000000D+01
    4.248180000000D+05 4.000000000000D+00
